GLOBALSTAR M068         
1 32266U 07048D   25195.39384502 -.00000109  00000+0 -29513-4 0  9999
2 32266  51.9859 219.3227 0001118 191.8506 300.4180 12.62826354820998
GLOBALSTAR M079         
1 37188U 10054A   25195.56904880 -.00000095  00000+0  46540-4 0  9996
2 37188  52.0047  56.4312 0000893  53.0994 343.3306 12.62265483680597
GLOBALSTAR M074         
1 37189U 10054B   25195.76295977 -.00000098  00000+0  34679-4 0  9992
2 37189  52.0028  55.1614 0000958  73.5904   2.7523 12.62266612680613
GLOBALSTAR M076         
1 37190U 10054C   25195.33499568 -.00000088  00000+0  87173-4 0  9995
2 37190  52.0039  56.6359 0001051  62.9582 108.6234 12.62263551680207
GLOBALSTAR M077         
1 37191U 10054D   25195.52950657 -.00000110  00000+0 -36024-4 0  9994
2 37191  52.0089  12.9079 0000882  88.5479 307.8057 12.62268834680606
GLOBALSTAR M075         
1 37192U 10054E   25195.50653912 -.00000080  00000+0  12991-3 0  9998
2 37192  51.9948  98.3558 0000617  53.5414 118.0485 12.62266084679291
GLOBALSTAR M073         
1 37193U 10054F   25195.64385075 -.00000107  00000+0 -17589-4 0  9996
2 37193  52.0078  11.7770 0000947  80.2684 355.9330 12.62272498681352
GLOBALSTAR M083         
1 37739U 11033A   25195.75840309 -.00000087  00000+0  94530-4 0  9995
2 37739  51.9877 320.1250 0000562 111.4096  63.9164 12.62259940650691
GLOBALSTAR M088         
1 37740U 11033B   25195.48748325 -.00000103  00000+0  25278-5 0  9995
2 37740  52.0190 226.5572 0000263 169.5811 335.0309 12.62266725645840
GLOBALSTAR M091         
1 37741U 11033C   25195.74385611 -.00000116  00000+0 -65521-4 0  9999
2 37741  51.9969 189.2385 0000232 294.5490 236.2598 12.62269282646921
GLOBALSTAR M085         
1 37742U 11033D   25195.33310056 -.00000099  00000+0  24584-4 0  9999
2 37742  51.9854 141.5017 0000385 359.6631 164.3006 12.62269680647127
GLOBALSTAR M081         
1 37743U 11033E   25195.36108205 -.00000109  00000+0 -30185-4 0  9991
2 37743  51.9944 144.2227 0000521  14.9497 154.6254 12.62266960647275
GLOBALSTAR M089         
1 37744U 11033F   25195.47988547 -.00000087  00000+0  93948-4 0  9999
2 37744  51.9932  98.0827 0000857  66.6926 104.2041 12.62265278648130
GLOBALSTAR M084         
1 38040U 11080A   25195.55247097 -.00000099  00000+0  29202-4 0  9993
2 38040  52.0030 325.1658 0001060 103.6574 336.4324 12.62266984626409
GLOBALSTAR M080         
1 38041U 11080B   25195.59668269 -.00000095  00000+0  51102-4 0  9996
2 38041  52.0080 326.6329 0000673 146.7562 263.6507 12.62263878626256
GLOBALSTAR M082         
1 38042U 11080C   25195.63325613 -.00000078  00000+0  14163-3 0  9991
2 38042  52.0082 281.9861 0000488 171.9484 335.6424 12.62267206627135
GLOBALSTAR M092         
1 38043U 11080D   25195.58104920 -.00000087  00000+0  93276-4 0  9995
2 38043  52.0101  12.5211 0000860  91.8172 298.1594 12.62264861625417
GLOBALSTAR M090         
1 38044U 11080E   25195.47143779 -.00000078  00000+0  14581-3 0  9990
2 38044  52.0127 276.3230 0000342 129.1726 243.9297 12.62260847627063
GLOBALSTAR M086         
1 38045U 11080F   25195.43335252 -.00000077  00000+0  14776-3 0  9991
2 38045  51.9900 276.9174 0001102  51.7543  29.0433 12.62272514627009
GLOBALSTAR M097         
1 39072U 13005A   25195.36305890 -.00000113  00000+0 -53089-4 0  9991
2 39072  52.0018 191.7042 0000200   7.5078 352.5791 12.62265654574245
GLOBALSTAR M093         
1 39073U 13005B   25195.33670992 -.00000114  00000+0 -55600-4 0  9999
2 39073  51.9783 185.0439 0000249 346.9447  13.1413 12.62266029574194
GLOBALSTAR M094         
1 39074U 13005C   25195.73277461 -.00000091  00000+0  73037-4 0  9995
2 39074  51.9958  98.2483 0000726  29.3025 330.7883 12.62262784575876
GLOBALSTAR M096         
1 39075U 13005D   25195.58753000 -.00000101  00000+0  13745-4 0  9999
2 39075  52.0059 147.2255 0000462 355.9607   4.1256 12.62265589574752
GLOBALSTAR M078         
1 39076U 13005E   25195.48201110 -.00000105  00000+0 -69580-5 0  9993
2 39076  51.9849 232.0223 0000805 221.9210 138.1594 12.62259623573360
GLOBALSTAR M095         
1 39077U 13005F   25195.58734124 -.00000101  00000+0  17480-4 0  9997
2 39077  51.9775 228.8827 0000385 252.1466 107.9358 12.62268286573596
GLOBALSTAR M087         
1 52888U 22064A   25195.76268899 -.00000110  00000+0 -29142-4 0  9997
2 52888  52.0012   9.7498 0001081 105.1109 254.9878 12.63725701148850
